     3.04           N: GNSS NAV DATA    R: GLONASS          RINEX VERSION / TYPE
CHC Navigation      CHC Navigation      20230628 133754 UTC PGM / RUN BY / DATE 
    18                                                      LEAP SECONDS        
                                                            END OF HEADER       
R 6 2023 06 20 07 45 00-1.155873760581E-04-1.818989403546E-12 2.841000000000E+04
    -8.009852539063E+03-2.154636383057E-01 9.313225746155E-10 0.000000000000E+00
     1.390206982422E+04-2.708565711975E+00 3.725290298462E-09-4.000000000000E+00
     1.982806201172E+04 1.809720993042E+00 0.000000000000E+00 0.000000000000E+00
R22 2023 06 20 07 45 00 8.264463394880E-05 4.547473508865E-12 2.841000000000E+04
     4.119219238281E+03-2.667958259583E+00 0.000000000000E+00 0.000000000000E+00
     1.021942041016E+04 1.670004844666E+00 4.656612873077E-09-3.000000000000E+00
     2.302693603516E+04-2.630348205566E-01 0.000000000000E+00 0.000000000000E+00
R20 2023 06 20 07 45 00-9.507592767477E-05 0.000000000000E+00 2.841000000000E+04
    -2.208046289063E+04 3.913288116455E-01 1.862645149231E-09 0.000000000000E+00
     1.262326708984E+04 5.780887603760E-02 0.000000000000E+00 2.000000000000E+00
    -2.198749511719E+03-3.593326568604E+00 9.313225746155E-10 0.000000000000E+00
R21 2023 06 20 07 45 00-1.660920679569E-05-2.728484105319E-12 2.841000000000E+04
    -1.092020166016E+04-1.772322654724E+00 1.862645149231E-09 0.000000000000E+00
     1.622245166016E+04 1.387984275818E+00 3.725290298462E-09 4.000000000000E+00
     1.635408300781E+04-2.561472892761E+00 9.313225746155E-10 0.000000000000E+00
R 7 2023 06 20 07 45 00 5.844142287970E-05 9.094947017729E-13 2.844000000000E+04
    -1.063680175781E+03 1.032104492188E-01 9.313225746155E-10 0.000000000000E+00
     2.470615332031E+04-8.795146942139E-01 4.656612873077E-09 5.000000000000E+00
     6.395344238281E+03 3.432863235474E+00 2.793967723846E-09 0.000000000000E+00
R 8 2023 06 20 07 45 00-7.132068276405E-05 0.000000000000E+00 2.847000000000E+04
     6.469104003906E+03 2.662172317505E-01 0.000000000000E+00 0.000000000000E+00
     2.258557324219E+04 1.349566459656E+00 1.862645149231E-09 6.000000000000E+00
    -9.909704589844E+03 3.227291107178E+00 3.725290298462E-09 0.000000000000E+00
R 6 2023 06 20 08 15 00-1.155911013484E-04-1.818989403546E-12 2.880000000000E+04
    -8.815686035156E+03-6.869888305664E-01 1.862645149231E-09 0.000000000000E+00
     8.743472656250E+03-2.973530769348E+00 2.793967723846E-09-4.000000000000E+00
     2.227680078125E+04 8.933858871460E-01 0.000000000000E+00 0.000000000000E+00
R22 2023 06 20 08 15 00 8.265301585197E-05 4.547473508865E-12 2.880000000000E+04
    -3.418603515625E+02-2.252640724182E+00 9.313225746155E-10 0.000000000000E+00
     1.348717187500E+04 1.924294471741E+00 4.656612873077E-09-3.000000000000E+00
     2.167160009766E+04-1.233134269714E+00 0.000000000000E+00 0.000000000000E+00
R20 2023 06 20 08 15 00-9.507685899735E-05 0.000000000000E+00 2.880000000000E+04
    -2.075101318359E+04 1.051478385925E+00 1.862645149231E-09 0.000000000000E+00
     1.219913623047E+04-5.556755065918E-01-9.313225746155E-10 2.000000000000E+00
    -8.498541015625E+03-3.361083984375E+00 9.313225746155E-10 0.000000000000E+00
R21 2023 06 20 08 15 00-1.661479473114E-05-2.728484105319E-12 2.880000000000E+04
    -1.343394531250E+04-1.016255378723E+00 2.793967723846E-09 0.000000000000E+00
     1.856342871094E+04 1.166698455811E+00 2.793967723846E-09 4.000000000000E+00
     1.116970361328E+04-3.161492347717E+00 9.313225746155E-10 0.000000000000E+00
R 7 2023 06 20 08 15 00 5.844421684742E-05 9.094947017729E-13 2.880000000000E+04
    -1.119220214844E+03-1.990261077881E-01 1.862645149231E-09 0.000000000000E+00
     2.239376074219E+04-1.663471221924E+00 4.656612873077E-09 5.000000000000E+00
     1.224881201172E+04 3.028999328613E+00 1.862645149231E-09 0.000000000000E+00
R 8 2023 06 20 08 15 00-7.132068276405E-05 0.000000000000E+00 2.880000000000E+04
     6.998505371094E+03 2.809343338013E-01 9.313225746155E-10 0.000000000000E+00
     2.424054687500E+04 4.796438217163E-01 2.793967723846E-09 6.000000000000E+00
    -3.792297851563E+03 3.525585174561E+00 3.725290298462E-09 0.000000000000E+00
R 6 2023 06 20 08 45 00-1.155938953161E-04-1.818989403546E-12 3.060000000000E+04
    -1.047591845703E+04-1.146678924561E+00 1.862645149231E-09 0.000000000000E+00
     3.380202148438E+03-2.935328483582E+00 1.862645149231E-09-4.000000000000E+00
     2.300251953125E+04-9.231662750244E-02-9.313225746155E-10 0.000000000000E+00
R22 2023 06 20 08 45 00 8.266139775515E-05 4.547473508865E-12 3.060000000000E+04
    -3.887520507813E+03-1.666855812073E+00 2.793967723846E-09 0.000000000000E+00
     1.699697753906E+04 1.930090904236E+00 3.725290298462E-09-3.000000000000E+00
     1.864482128906E+04-2.108194351196E+00 9.313225746155E-10 0.000000000000E+00
R21 2023 06 20 08 45 00-1.662038266659E-05-2.728484105319E-12 3.060000000000E+04
    -1.459798388672E+04-2.919645309448E-01 2.793967723846E-09 0.000000000000E+00
     2.026176806641E+04 6.789779663086E-01 9.313225746155E-10 4.000000000000E+00
     5.120011230469E+03-3.516652107239E+00 9.313225746155E-10 0.000000000000E+00
R 7 2023 06 20 08 45 00 5.844607949257E-05 9.094947017729E-13 3.060000000000E+04
    -1.881769531250E+03-6.695003509521E-01 2.793967723846E-09 0.000000000000E+00
     1.884005712891E+04-2.244514465332E+00 3.725290298462E-09 5.000000000000E+00
     1.715973583984E+04 2.392385482788E+00 9.313225746155E-10 0.000000000000E+00
R 8 2023 06 20 08 45 00-7.132068276405E-05 0.000000000000E+00 3.060000000000E+04
     7.331956542969E+03 4.966735839844E-02 1.862645149231E-09 0.000000000000E+00
     2.431317675781E+04-3.888874053955E-01 3.725290298462E-09 6.000000000000E+00
     2.618329589844E+03 3.551139831543E+00 2.793967723846E-09 0.000000000000E+00
R23 2023 06 20 08 45 00-8.666981011629E-05-9.094947017729E-13 3.222000000000E+04
     1.087699609375E+04-2.118093490601E+00 0.000000000000E+00 0.000000000000E+00
     3.152087402344E+03 2.313910484314E+00 3.725290298462E-09 3.000000000000E+00
     2.284126220703E+04 6.889228820801E-01 0.000000000000E+00 0.000000000000E+00
R 6 2023 06 20 09 15 00-1.155948266387E-04-1.818989403546E-12 3.240000000000E+04
    -1.287300830078E+04-1.489105224609E+00 9.313225746155E-10 0.000000000000E+00
    -1.652476562500E+03-2.613191604614E+00 0.000000000000E+00-4.000000000000E+00
     2.194859179688E+04-1.071147918701E+00-1.862645149231E-09 0.000000000000E+00
R22 2023 06 20 09 15 00 8.266977965832E-05 4.547473508865E-12 3.240000000000E+04
    -6.303207031250E+03-1.015727043152E+00 2.793967723846E-09 0.000000000000E+00
     2.026647607422E+04 1.655727386475E+00 2.793967723846E-09-3.000000000000E+00
     1.417979492188E+04-2.820844650269E+00 9.313225746155E-10 0.000000000000E+00
R23 2023 06 20 09 15 00-8.667260408401E-05-9.094947017729E-13 3.240000000000E+04
     7.349413085938E+03-1.766918182373E+00 1.862645149231E-09 0.000000000000E+00
     7.654424804688E+03 2.647919654846E+00 3.725290298462E-09 3.000000000000E+00
     2.318104101563E+04-3.138446807861E-01 0.000000000000E+00 0.000000000000E+00
R21 2023 06 20 09 15 00-1.662597060204E-05-2.728484105319E-12 3.240000000000E+04
    -1.456917431641E+04 2.929925918579E-01 2.793967723846E-09 0.000000000000E+00
     2.087854443359E+04-2.279758453369E-02 0.000000000000E+00 4.000000000000E+00
    -1.326344238281E+03-3.599360466003E+00 9.313225746155E-10 0.000000000000E+00
R 7 2023 06 20 09 15 00 5.844887346029E-05 9.094947017729E-13 3.240000000000E+04
    -3.576257324219E+03-1.217464447021E+00 2.793967723846E-09 0.000000000000E+00
     1.447629443359E+04-2.555685997009E+00 2.793967723846E-09 5.000000000000E+00
     2.075084326172E+04 1.571979522705E+00 0.000000000000E+00 0.000000000000E+00
R 8 2023 06 20 09 15 00-7.132068276405E-05 0.000000000000E+00 3.240000000000E+04
     7.046525390625E+03-3.982038497925E-01 2.793967723846E-09 0.000000000000E+00
     2.290994384766E+04-1.142465591431E+00 3.725290298462E-09 6.000000000000E+00
     8.827127929688E+03 3.302937507629E+00 1.862645149231E-09 0.000000000000E+00
R22 2023 06 20 09 45 00 8.268374949694E-05 4.547473508865E-12 3.420000000000E+04
    -7.572025390625E+03-4.106597900391E-01 3.725290298462E-09 0.000000000000E+00
     2.279689013672E+04 1.115013122559E+00 9.313225746155E-10-3.000000000000E+00
     8.620566894531E+03-3.316074371338E+00 9.313225746155E-10 0.000000000000E+00
R23 2023 06 20 09 45 00-8.667446672916E-05-9.094947017729E-13 3.420000000000E+04
     4.612126464844E+03-1.256484031677E+00 2.793967723846E-09 0.000000000000E+00
     1.251902294922E+04 2.707399368286E+00 3.725290298462E-09 3.000000000000E+00
     2.172606152344E+04-1.292274475098E+00 0.000000000000E+00 0.000000000000E+00
R21 2023 06 20 09 45 00-1.663155853748E-05-2.728484105319E-12 3.420000000000E+04
    -1.367579980469E+04 6.583395004272E-01 9.313225746155E-10 0.000000000000E+00
     2.010490966797E+04-8.484230041504E-01-9.313225746155E-10 4.000000000000E+00
    -7.669976074219E+03-3.403283119202E+00 9.313225746155E-10 0.000000000000E+00
R 7 2023 06 20 09 45 00 5.845166742802E-05 9.094947017729E-13 3.420000000000E+04
    -6.246587402344E+03-1.735380172729E+00 2.793967723846E-09 0.000000000000E+00
     9.817238281250E+03-2.572327613831E+00 1.862645149231E-09 5.000000000000E+00
     2.274608007813E+04 6.305809020996E-01-9.313225746155E-10 0.000000000000E+00
R 8 2023 06 20 09 45 00-7.131975144148E-05 0.000000000000E+00 3.420000000000E+04
     5.809622558594E+03-9.931001663208E-01 3.725290298462E-09 0.000000000000E+00
     2.032584814453E+04-1.687988281250E+00 2.793967723846E-09 6.000000000000E+00
     1.435622070313E+04 2.800908088684E+00 9.313225746155E-10 0.000000000000E+00
